ONEWEB-0612             
1 54675U 22166AK  23233.51192756 -.00000030  00000+0 -10404-3 0  9999
2 54675  87.9180  89.2015 0001868  69.0949 291.0384 13.21823980 35740
ONEWEB-0615             
1 54676U 22166AL  23232.66032143 -.00000711  00000+0 -17524-2 0  9993
2 54676  87.9194  89.3775 0001578  83.4298 276.7016 13.21826360 35641
ONEWEB-0655             
1 54677U 22166AM  23233.16499064  .00000034  00000+0  51078-4 0  9999
2 54677  87.9200  89.2856 0001738  79.6464 280.4866 13.21826787 35704
ONEWEB-0659             
1 54678U 22166AN  23233.10611187  .00003856  00000+0  93037-2 0  9990
2 54678  87.9164  89.3383 0002162  82.9226 277.2153 13.21804627 35785
ONEWEB-0685             
1 54679U 22166AP  23232.50262366  .00000055  00000+0  10239-3 0  9997
2 54679  87.9194  89.4099 0000939  65.8541 294.2691 13.21829441 35590
ONEWEB-0712             
1 54680U 22166AQ  23232.54086820  .00000039  00000+0  54669-4 0  9990
2 54680  87.9342  74.1115 0001880  84.7976 275.3377 13.29377300 36722
ONEWEB-0714             
1 54681U 22166AR  23232.65823242 -.00000011  00000+0 -58227-4 0  9996
2 54681  87.9187  89.3729 0001433  78.2563 281.8732 13.21824164 35737
ONEWEB-0532             
1 55140U 23004A   23232.48765435 -.00002560  00000+0 -54450-2 0  9992
2 55140  87.9708 210.8241 0002956 135.6620 224.4757 13.30851371 31680
